{
    "links": {
        "self": "http://www.neowsapp.com/rest/v1/neo/3746220?api_key=iIulBulltgU6a56xZRHN4H3l9WmuAYTsLGpBGhQ2"
    },
    "id": "3746220",
    "neo_reference_id": "3746220",
    "name": "(2016 EK85)",
    "designation": "2016 EK85",
    "nasa_jpl_url": "http://ssd.jpl.nasa.gov/sbdb.cgi?sstr=3746220",
    "absolute_magnitude_h": 25.9,
    "estimated_diameter": {
        "kilometers": {
            "estimated_diameter_min": 0.0175612318,
            "estimated_diameter_max": 0.0392681082
        },
        "meters": {
            "estimated_diameter_min": 17.561231848,
            "estimated_diameter_max": 39.2681081809
        },
        "miles": {
            "estimated_diameter_min": 0.0109120402,
            "estimated_diameter_max": 0.0244000636
        },
        "feet": {
            "estimated_diameter_min": 57.6155918963,
            "estimated_diameter_max": 128.8323800441
        }
    },
    "is_potentially_hazardous_asteroid": false,
    "close_approach_data": [
        {
            "close_approach_date": "2012-06-06",
            "close_approach_date_full": "2012-Jun-06 03:04",
            "epoch_date_close_approach": 1338951840000,
            "relative_velocity": {
                "kilometers_per_second": "20.2424332645",
                "kilometers_per_hour": "72872.7597520942",
                "miles_per_hour": "45280.2989692943"
            },
            "miss_distance": {
                "astronomical": "0.06365671",
                "lunar": "24.76246019",
                "kilometers": "9522908.2272077",
                "miles": "5917260.78535826"
            },
            "orbiting_body": "Mars"
        },
        {
            "close_approach_date": "2016-03-03",
            "close_approach_date_full": "2016-Mar-03 10:19",
            "epoch_date_close_approach": 1457000340000,
            "relative_velocity": {
                "kilometers_per_second": "17.0327158109",
                "kilometers_per_hour": "61317.7769192126",
                "miles_per_hour": "38100.4819973852"
            },
            "miss_distance": {
                "astronomical": "0.0114699649",
                "lunar": "4.4618163461",
                "kilometers": "1715882.318014763",
                "miles": "1066199.8320712094"
            },
            "orbiting_body": "Earth"
        }
    ],
    "orbital_data": {
        "orbit_id": "11",
        "orbit_determination_date": "2017-04-06 08:27:36",
        "first_observation_date": "2016-03-09",
        "last_observation_date": "2016-04-05",
        "data_arc_in_days": 27,
        "observations_used": 74,
        "orbit_uncertainty": "7",
        "minimum_orbit_intersection": ".00328179",
        "jupiter_tisserand_invariant": "3.083",
        "epoch_osculation": "2459000.5",
        "eccentricity": ".6970397349345934",
        "semi_major_axis": "2.487646753477668",
        "inclination": "1.517015915361692",
        "ascending_node_longitude": "155.1917577078599",
        "orbital_period": "1433.116487912623",
        "perihelion_distance": ".7536581198226926",
        "perihelion_argument": "301.7604105413812",
        "aphelion_distance": "4.221635387132643",
        "perihelion_time": "2458843.032138425275",
        "mean_anomaly": "39.55605189461555",
        "mean_motion": ".2512007942385414",
        "equinox": "J2000",
        "orbit_class": {
            "orbit_class_type": "APO",
            "orbit_class_description": "Near-Earth asteroid orbits which cross the Earth’s orbit similar to that of 1862 Apollo",
            "orbit_class_range": "a (semi-major axis) > 1.0 AU; q (perihelion) < 1.017 AU"
        }
    },
    "is_sentry_object": false
}